sat04997
1 04997U 70025HT  20046.63306888  .00000263  00000-0  23286-3 0  9992
2 04997  99.9528  94.5129 0050305 200.4459 159.4686 13.94515599511535
